NORAD_CAT_ID,OBJECT_NAME,OBJECT_TYPE,EPOCH,MEAN_MOTION,ECCENTRICITY,INCLINATION,RA_OF_ASC_NODE,ARG_OF_PERICENTER,MEAN_ANOMALY,BSTAR,MEAN_MOTION_DOT,MEAN_MOTION_DDOT,TLE_LINE0,TLE_LINE1,TLE_LINE2,SEMIMAJOR_AXIS,PERIOD,APOGEE,PERIGEE,DECAYED
53179.0,STARLINK-4276,PAYLOAD,2022-07-21 18:00:00,15.89638936,0.0037485999999999,53.2173,26.5802,50.6871,55.2215,-0.0040961999999999,-0.01311551,0.00048968,0 STARLINK-4276,1 53179U 22083AZ  22202.75001157 -.01311551  48968-3 -40962-2 0  9994,2 53179  53.2173  26.5802 0037486  50.6871  55.2215 15.89638936  1308,6681.431,90.587,328.342,278.25,0.0
53179.0,STARLINK-4276,PAYLOAD,2022-07-22 06:00:00,15.88319774,0.0031526999999999,53.2177,24.0463,51.7583,36.0105,-0.0044563999999999,-0.01309113,0.00048205,0 STARLINK-4276,1 53179U 22083AZ  22203.25001157 -.01309113  48205-3 -44564-2 0  9997,2 53179  53.2177  24.0463 0031527  51.7583  36.0105 15.88319774  1377,6685.13,90.662,328.07199999999995,285.9190000000001,0.0
53179.0,STARLINK-4276,PAYLOAD,2022-07-22 12:00:00,15.87660668,0.0028824,53.2177,22.7813,51.1248,26.6823,-0.004638,-0.01308505,0.00047872,0 STARLINK-4276,1 53179U 22083AZ  22203.50001157 -.01308505  47872-3 -46380-2 0  9996,2 53179  53.2177  22.7813 0028824  51.1248  26.6823 15.87660668  1416,6686.98,90.699,328.12,289.571,0.0
53179.0,STARLINK-4276,PAYLOAD,2022-07-22 20:00:01,15.86808957,0.0025375999999999,53.2175,21.0995,50.0221,133.5681,-0.0050913,-0.01364978,0.00051304,0 STARLINK-4276,1 53179U 22083AZ  22203.83334491 -.01364978  51304-3 -50913-2 0  9990,2 53179  53.2175  21.0995 0025376  50.0221 133.5681 15.86808957  1475,6689.373000000001,90.748,328.213,294.263,0.0
53179.0,STARLINK-4276,PAYLOAD,2022-07-22 22:00:00,15.86597579,0.0023867,53.2174,20.6791,50.2375,249.6334,-0.0052327,-0.01383717,0.00052495,0 STARLINK-4276,1 53179U 22083AZ  22203.91667824 -.01383717  52495-3 -52327-2 0  9993,2 53179  53.2174  20.6791 0023867  50.2375 249.6334 15.86597579  1309,6689.967,90.76,327.7990000000001,295.865,0.0
53179.0,STARLINK-4276,PAYLOAD,2022-07-23 06:00:00,15.85689867,0.0020009,53.2175,18.9957,50.5244,353.8315,-0.0052665,-0.01172134,0.0,0 STARLINK-4276,1 53179U 22083AZ  22204.25001157 -.01172134  00000-0 -52665-2 0  9998,2 53179  53.2175  18.9957 0020009  50.5244 353.8315 15.85689867  1530,6692.52,90.812,327.776,300.994,0.0
53179.0,STARLINK-4276,PAYLOAD,2022-07-23 14:00:01,15.84819555,0.0016471,53.2177,17.3165,48.8988,98.9376,-0.0055942,-0.01182956,0.0,0 STARLINK-4276,1 53179U 22083AZ  22204.58335648 -.01182956  00000-0 -55942-2 0  9993,2 53179  53.2177  17.3165 0016471  48.8988  98.9376 15.84819555  1306,6694.97,90.862,327.862,305.808,0.0
53179.0,STARLINK-4276,PAYLOAD,2022-07-23 22:00:00,15.83963536,0.0012429,53.2176,15.6413,47.7239,202.3991,-0.0060686,-0.01241266,0.0,0 STARLINK-4276,1 53179U 22083AZ  22204.91667824 -.01241266  00000-0 -60686-2 0  9995,2 53179  53.2176  15.6413 0012429  47.7239 202.3991 15.83963536  1647,6697.382,90.911,327.571,310.923,0.0
53179.0,STARLINK-4276,PAYLOAD,2022-07-24 14:00:01,15.82175769,0.0007178999999999,53.2175,12.2922,33.0555,58.6335,-0.0063234,-0.01186571,0.0,0 STARLINK-4276,1 53179U 22083AZ  22205.58334491 -.01186571  00000-0 -63234-2 0  9999,2 53179  53.2175  12.2922 0007179  33.0555  58.6335 15.82175769  1308,6702.426,91.014,329.103,319.4790000000001,0.0
53179.0,STARLINK-4276,PAYLOAD,2022-07-24 22:00:00,15.81311283,0.0004654,53.2173,10.6233,19.5101,171.3661,-0.0067387,-0.01208739,0.0,0 STARLINK-4276,1 53179U 22083AZ  22205.91667824 -.01208739  00000-0 -67387-2 0  9999,2 53179  53.2173  10.6233 0004654  19.5101 171.3661 15.81311283  1301,6704.868,91.064,329.8540000000001,323.613,0.0
53179.0,STARLINK-4276,PAYLOAD,2022-07-25 06:00:00,15.80438055,0.0003793999999999,53.2175,8.9528,4.9301,284.0829,-0.0070822,-0.01217752,0.0,0 STARLINK-4276,1 53179U 22083AZ  22206.25001157 -.01217752  00000-0 -70822-2 0  9991,2 53179  53.2175   8.9528 0003794   4.9301 284.0829 15.80438055  1858,6707.3380000000025,91.114,331.7480000000001,326.658,0.0
53179.0,STARLINK-4276,PAYLOAD,2022-07-25 14:00:01,15.79556257,0.0003985,53.2178,7.2872,359.1359,26.9588,-0.0073391,-0.01212345,0.0,0 STARLINK-4276,1 53179U 22083AZ  22206.58334491 -.01212345  00000-0 -73391-2 0  9994,2 53179  53.2178   7.2872 0003985 359.1359  26.9588 15.79556257  1303,6709.834,91.165,334.3730000000001,329.025,0.0
53179.0,STARLINK-4276,PAYLOAD,2022-07-25 22:00:00,15.78672224,0.0003731,53.2173,5.6245,3.6652,118.4554,-0.0075758,-0.0120275,0.0,0 STARLINK-4276,1 53179U 22083AZ  22206.91667824 -.01202750  00000-0 -75758-2 0  9998,2 53179  53.2173   5.6245 0003731   3.6652 118.4554 15.78672224  1964,6712.339,91.216,336.708,331.699,0.0
53179.0,STARLINK-4276,PAYLOAD,2022-07-26 14:00:01,15.76913202,0.0004689,53.2174,2.3017,334.1423,336.8611,-0.008176,-0.01199884,0.0,0 STARLINK-4276,1 53179U 22083AZ  22207.58334491 -.01199884  00000-0 -81760-2 0  9996,2 53179  53.2174   2.3017 0004689 334.1423 336.8611 15.76913202  2061,6717.329000000002,91.318,342.344,336.045,0.0
53179.0,STARLINK-4276,PAYLOAD,2022-07-26 22:00:00,15.76034261,0.0006544,53.2171,0.6453,218.3737,185.4854,-0.0084809,-0.01198563,0.0,0 STARLINK-4276,1 53179U 22083AZ  22207.91667824 -.01198563  00000-0 -84809-2 0  9992,2 53179  53.2171   0.6453 0006544 218.3737 185.4854 15.76034261  1308,6719.8269999999975,91.369,346.089,337.2940000000001,0.0
53179.0,STARLINK-4276,PAYLOAD,2022-07-27 14:00:01,15.74175938,0.0001643,53.2177,357.3357,38.9339,187.4903,-0.0071512,-0.00937627,0.0,0 STARLINK-4276,1 53179U 22083AZ  22208.58334491 -.00937627  00000-0 -71512-2 0  9995,2 53179  53.2177 357.3357 0001643  38.9339 187.4903 15.74175938  2222,6725.114000000001,91.476,348.084,345.874,0.0
53179.0,STARLINK-4276,PAYLOAD,2022-07-27 22:00:00,15.73358092,0.000166,53.2172,355.6855,40.8861,275.2299,-0.001694,-0.00233476,0.0,0 STARLINK-4276,1 53179U 22083AZ  22208.91667824 -.00233476  00000-0 -16940-2 0  9996,2 53179  53.2172 355.6855 0001660  40.8861 275.2299 15.73358092  2274,6727.444,91.524,350.426,348.1930000000001,0.0
53179.0,STARLINK-4276,PAYLOAD,2022-07-28 06:00:00,15.73352078,0.0001205,53.2174,354.0343,48.2496,356.6665,-9.0847e-05,-0.00013434,0.0,0 STARLINK-4276,1 53179U 22083AZ  22209.25001157 -.00013434  00000-0 -90847-4 0  9995,2 53179  53.2174 354.0343 0001205  48.2496 356.6665 15.73352078  2327,6727.462,91.524,350.13699999999994,348.516,0.0
53179.0,STARLINK-4276,PAYLOAD,2022-07-28 14:00:01,15.73232889,0.0001079,53.2182,352.3869,50.2601,83.6318,5.6269e-05,7.295e-05,0.0,0 STARLINK-4276,1 53179U 22083AZ  22209.58334491  .00007295  00000-0  56269-4 0  9997,2 53179  53.2182 352.3869 0001079  50.2601  83.6318 15.73232889  1306,6727.801,91.531,350.392,348.94,0.0
53179.0,STARLINK-4276,PAYLOAD,2022-07-28 22:00:00,15.73243613,0.0001182,53.2182,350.7382,40.9153,181.9513,0.00038849,0.00054357,0.0,0 STARLINK-4276,1 53179U 22083AZ  22209.91667824  .00054357  00000-0  38849-3 0  9997,2 53179  53.2182 350.7382 0001182  40.9153 181.9513 15.73243613  2432,6727.771,91.531,350.431,348.841,0.0
53179.0,STARLINK-4276,PAYLOAD,2022-07-29 06:00:00,15.7327393,0.0001097,53.2186,349.0866,49.4473,262.4158,-6.0015e-05,-9.06e-05,0.0,0 STARLINK-4276,1 53179U 22083AZ  22210.25001157 -.00009060  00000-0 -60015-4 0  9991,2 53179  53.2186 349.0866 0001097  49.4473 262.4158 15.73273930  2488,6727.684,91.529,350.287,348.811,0.0
53179.0,STARLINK-4276,PAYLOAD,2022-07-29 14:00:01,15.73270347,0.0001291999999999,53.2188,347.4383,47.1757,353.7052,-0.00088909,-0.00123948,0.0,0 STARLINK-4276,1 53179U 22083AZ  22210.58334491 -.00123948  00000-0 -88909-3 0  9990,2 53179  53.2188 347.4383 0001292  47.1757 353.7052 15.73270347  1309,6727.695,91.529,350.42900000000014,348.69,0.0
53179.0,STARLINK-4276,PAYLOAD,2022-07-29 20:00:01,15.73149772,0.0001367,53.2185,346.2022,39.7746,337.8297,0.00051104,0.00071559,0.0,0 STARLINK-4276,1 53179U 22083AZ  22210.83334491  .00071559  00000-0  51104-3 0  9993,2 53179  53.2185 346.2022 0001367  39.7746 337.8297 15.73149772  2572,6728.038000000001,91.536,350.8230000000001,348.9840000000001,0.0
53179.0,STARLINK-4276,PAYLOAD,2022-07-29 22:00:00,15.73177811,0.0001341,53.2183,345.7895,39.5986,90.2213,0.00020128,0.00027695,0.0,0 STARLINK-4276,1 53179U 22083AZ  22210.91667824  .00027695  00000-0  20128-3 0  9995,2 53179  53.2183 345.7895 0001341  39.5986  90.2213 15.73177811  1301,6727.958000000001,91.534,350.726,348.921,0.0
53179.0,STARLINK-4276,PAYLOAD,2022-07-30 14:00:01,15.73203378,0.0001685,53.2173,342.4883,55.3883,252.2811,1.3856e-05,1.325e-05,0.0,0 STARLINK-4276,1 53179U 22083AZ  22211.58334491  .00001325  00000-0  13856-4 0  9993,2 53179  53.2173 342.4883 0001685  55.3883 252.2811 15.73203378  2699,6727.886,91.533,350.884,348.617,0.0
53179.0,STARLINK-4276,PAYLOAD,2022-07-30 20:00:01,15.73227055,0.0001459,53.2187,341.254,40.1235,244.3546,-0.00017365,-0.00024947,0.0,0 STARLINK-4276,1 53179U 22083AZ  22211.83334491 -.00024947  00000-0 -17365-3 0  9996,2 53179  53.2187 341.2540 0001459  40.1235 244.3546 15.73227055  2733,6727.818,91.532,350.665,348.701,0.0
53179.0,STARLINK-4276,PAYLOAD,2022-07-30 22:00:00,15.73230494,0.0001475,53.2185,340.8412,40.9791,355.7369,-0.00030829,-0.00043719,0.0,0 STARLINK-4276,1 53179U 22083AZ  22211.91667824 -.00043719  00000-0 -30829-3 0  9992,2 53179  53.2185 340.8412 0001475  40.9791 355.7369 15.73230494  1300,6727.808000000001,91.531,350.666,348.681,0.0
53179.0,STARLINK-4276,PAYLOAD,2022-07-31 14:00:01,15.73250224,0.0001534,53.2189,337.5421,43.403,171.1856,-0.00069186,-0.00096818,0.0,0 STARLINK-4276,1 53179U 22083AZ  22212.58334491 -.00096818  00000-0 -69186-3 0  9993,2 53179  53.2189 337.5421 0001534  43.4030 171.1856 15.73250224  1301,6727.752,91.53,350.649,348.585,0.0
53179.0,STARLINK-4276,PAYLOAD,2022-07-31 20:00:01,15.73164689,0.0001524,53.2186,336.3057,34.7035,156.6051,0.00031447,0.00043677,0.0,0 STARLINK-4276,1 53179U 22083AZ  22212.83334491  .00043677  00000-0  31447-3 0  9993,2 53179  53.2186 336.3057 0001524  34.7035 156.6051 15.73164689  2896,6727.996,91.535,350.886,348.836,0.0
